[{"OBJECT_NAME":"GAOFEN-10R","OBJECT_ID":"2019-066A","EPOCH":"2026-03-09T23:14:29.289984","MEAN_MOTION":14.83155833,"ECCENTRICITY":0.00081973,"INCLINATION":98.0397,"RA_OF_ASC_NODE":21.897,"ARG_OF_PERICENTER":105.6349,"MEAN_ANOMALY":254.577,"EPHEMERIS_TYPE":0,"CLASSIFICATION_TYPE":"U","NORAD_CAT_ID":44622,"ELEMENT_SET_NO":999,"REV_AT_EPOCH":34767,"BSTAR":0.00026312767,"MEAN_MOTION_DOT":2.093e-5,"MEAN_MOTION_DDOT":0},{"OBJECT_NAME":"CZ-6A DEB","OBJECT_ID":"2024-140ZH","EPOCH":"2026-03-09T13:53:58.814016","MEAN_MOTION":14.63452194,"ECCENTRICITY":0.0111186,"INCLINATION":89.0351,"RA_OF_ASC_NODE":284.8261,"ARG_OF_PERICENTER":230.0576,"MEAN_ANOMALY":129.0831,"EPHEMERIS_TYPE":0,"CLASSIFICATION_TYPE":"U","NORAD_CAT_ID":61451,"ELEMENT_SET_NO":999,"REV_AT_EPOCH":7868,"BSTAR":0.0010856,"MEAN_MOTION_DOT":6.164e-5,"MEAN_MOTION_DDOT":0}]
